{"type": "FeatureCollection", "features": [ {"type": "Feature", "properties": {"norad_id": 35980, "name": "COSMOS 2251 DEB", "group": "cosmos-2251-debris", "lat": -10.010402756719833, "lon": -64.47047962095012, "alt_km": 677.5292582181664, "timestamp": "2025-12-17T23:38:07.250356+00:00", "meta": {"OBJECT_NAME": "COSMOS 2251 DEB", "OBJECT_ID": "1993-036AVW", "EPOCH": "2025-12-15T01:39:40.666752", "MEAN_MOTION": 14.5933919, "ECCENTRICITY": 0.00539648, "INCLINATION": 73.9111, "RA_OF_ASC_NODE": 118.2073, "ARG_OF_PERICENTER": 252.458, "MEAN_ANOMALY": 107.0684, "EPHEMERIS_TYPE": 0, "CLASSIFICATION_TYPE": "U", "NORAD_CAT_ID": 35980, "ELEMENT_SET_NO": 999, "REV_AT_EPOCH": 61520, "BSTAR": 0.00098659578, "MEAN_MOTION_DOT": 4.733e-05, "MEAN_MOTION_DDOT": 0}, "tle": {"line1": "1 35980U 93036AVW 25349.06922068  .00004733  00000+0  98660-3 0  9990", "line2": "2 35980  73.9111 118.2073 0053964 252.4580 107.0684 14.59339190615208"}}, "geometry": {"type": "Point", "coordinates": [-64.47047962095012, -10.010402756719833]}}, {"type": "Feature", "properties": {"norad_id": 35982, "name": "COSMOS 2251 DEB", "group": "cosmos-2251-debris", "lat": 0.12576680508271684, "lon": 156.85293201333982, "alt_km": 720.5044295508869, "timestamp": "2025-12-17T23:38:07.250366+00:00", "meta": {"OBJECT_NAME": "COSMOS 2251 DEB", "OBJECT_ID": "1993-036AVY", "EPOCH": "2025-12-17T09:41:22.970976", "MEAN_MOTION": 14.6277747, "ECCENTRICITY": 0.00642843, "INCLINATION": 74.058, "RA_OF_ASC_NODE": 338.0007, "ARG_OF_PERICENTER": 42.9164, "MEAN_ANOMALY": 317.6993, "EPHEMERIS_TYPE": 0, "CLASSIFICATION_TYPE": "U", "NORAD_CAT_ID": 35982, "ELEMENT_SET_NO": 999, "REV_AT_EPOCH": 86234, "BSTAR": 0.00047468772, "MEAN_MOTION_DOT": 2.464e-05, "MEAN_MOTION_DDOT": 0}, "tle": {"line1": "1 35982U 93036AVY 25351.40373809  .00002464  00000+0  47469-3 0  9996", "line2": "2 35982  74.0580 338.0007 0064284  42.9164 317.6993 14.62777470862340"}}, "geometry": {"type": "Point", "coordinates": [156.85293201333982, 0.12576680508271684]}}, {"type": "Feature", "properties": {"norad_id": 35987, "name": "COSMOS 2251 DEB", "group": "cosmos-2251-debris", "lat": 16.431455044630578, "lon": 132.02784461782312, "alt_km": 743.3707576237894, "timestamp": "2025-12-17T23:38:07.250376+00:00", "meta": {"OBJECT_NAME": "COSMOS 2251 DEB", "OBJECT_ID": "1993-036AWD", "EPOCH": "2025-12-14T05:02:56.141664", "MEAN_MOTION": 14.43139491, "ECCENTRICITY": 0.00459797, "INCLINATION": 73.9997, "RA_OF_ASC_NODE": 323.9049, "ARG_OF_PERICENTER": 89.0828, "MEAN_ANOMALY": 271.5596, "EPHEMERIS_TYPE": 0, "CLASSIFICATION_TYPE": "U", "NORAD_CAT_ID": 35987, "ELEMENT_SET_NO": 999, "REV_AT_EPOCH": 61086, "BSTAR": 0.001182332, "MEAN_MOTION_DOT": 3.997e-05, "MEAN_MOTION_DDOT": 0}, "tle": {"line1": "1 35987U 93036AWD 25348.21037201  .00003997  00000+0  11823-2 0  9995", "line2": "2 35987  73.9997 323.9049 0045979  89.0828 271.5596 14.43139491610862"}}, "geometry": {"type": "Point", "coordinates": [132.02784461782312, 16.431455044630578]}}, {"type": "Feature", "properties": {"norad_id": 35989, "name": "COSMOS 2251 DEB", "group": "cosmos-2251-debris", "lat": 73.66539181662418, "lon": 16.610829261167435, "alt_km": 763.0445328838841, "timestamp": "2025-12-17T23:38:07.250386+00:00", "meta": {"OBJECT_NAME": "COSMOS 2251 DEB", "OBJECT_ID": "1993-036AWF", "EPOCH": "2025-12-15T12:43:44.525280", "MEAN_MOTION": 14.3710632, "ECCENTRICITY": 0.00221302, "INCLINATION": 74.0379, "RA_OF_ASC_NODE": 278.7, "ARG_OF_PERICENTER": 359.7916, "MEAN_ANOMALY": 0.3224, "EPHEMERIS_TYPE": 0, "CLASSIFICATION_TYPE": "U", "NORAD_CAT_ID": 35989, "ELEMENT_SET_NO": 999, "REV_AT_EPOCH": 87219, "BSTAR": 0.00023403924, "MEAN_MOTION_DOT": 6.71e-06, "MEAN_MOTION_DDOT": 0}, "tle": {"line1": "1 35989U 93036AWF 25349.53037645  .00000671  00000+0  23404-3 0  9990", "line2": "2 35989  74.0379 278.7000 0022130 359.7916   0.3224 14.37106320872193"}}, "geometry": {"type": "Point", "coordinates": [16.610829261167435, 73.66539181662418]}}, {"type": "Feature", "properties": {"norad_id": 35993, "name": "COSMOS 2251 DEB", "group": "cosmos-2251-debris", "lat": 34.37576283458992, "lon": 131.38094618474346, "alt_km": 653.3199443367566, "timestamp": "2025-12-17T23:38:07.250396+00:00", "meta": {"OBJECT_NAME": "COSMOS 2251 DEB", "OBJECT_ID": "1993-036AWK", "EPOCH": "2025-12-17T04:57:26.962848", "MEAN_MOTION": 14.65334596, "ECCENTRICITY": 0.00286802, "INCLINATION": 74.0146, "RA_OF_ASC_NODE": 324.1891, "ARG_OF_PERICENTER": 152.382, "MEAN_ANOMALY": 207.888, "EPHEMERIS_TYPE": 0, "CLASSIFICATION_TYPE": "U", "NORAD_CAT_ID": 35993, "ELEMENT_SET_NO": 999, "REV_AT_EPOCH": 60508, "BSTAR": 0.00055537326, "MEAN_MOTION_DOT": 2.986e-05, "MEAN_MOTION_DDOT": 0}, "tle": {"line1": "1 35993U 93036AWK 25351.20656207  .00002986  00000+0  55537-3 0  9996", "line2": "2 35993  74.0146 324.1891 0028680 152.3820 207.8880 14.65334596605084"}}, "geometry": {"type": "Point", "coordinates": [131.38094618474346, 34.37576283458992]}}, {"type": "Feature", "properties": {"norad_id": 35996, "name": "COSMOS 2251 DEB", "group": "cosmos-2251-debris", "lat": -21.486802612478172, "lon": 86.11421543878059, "alt_km": 598.5071376324522, "timestamp": "2025-12-17T23:38:07.250406+00:00", "meta": {"OBJECT_NAME": "COSMOS 2251 DEB", "OBJECT_ID": "1993-036AWN", "EPOCH": "2025-12-15T22:25:06.327264", "MEAN_MOTION": 15.09228347, "ECCENTRICITY": 0.00876626, "INCLINATION": 74.0159, "RA_OF_ASC_NODE": 96.8248, "ARG_OF_PERICENTER": 187.0066, "MEAN_ANOMALY": 172.9909, "EPHEMERIS_TYPE": 0, "CLASSIFICATION_TYPE": "U", "NORAD_CAT_ID": 35996, "ELEMENT_SET_NO": 999, "REV_AT_EPOCH": 72374, "BSTAR": 0.00054952121, "MEAN_MOTION_DOT": 9.536e-05, "MEAN_MOTION_DDOT": 0}, "tle": {"line1": "1 35996U 93036AWN 25349.93410101  .00009536  00000+0  54952-3 0  9995", "line2": "2 35996  74.0159  96.8248 0087662 187.0066 172.9909 15.09228347723745"}}, "geometry": {"type": "Point", "coordinates": [86.11421543878059, -21.486802612478172]}}, {"type": "Feature", "properties": {"norad_id": 35997, "name": "COSMOS 2251 DEB", "group": "cosmos-2251-debris", "lat": 53.138691089732276, "lon": -160.13687649208077, "alt_km": 726.601431539837, "timestamp": "2025-12-17T23:38:07.250416+00:00", "meta": {"OBJECT_NAME": "COSMOS 2251 DEB", "OBJECT_ID": "1993-036AWP", "EPOCH": "2025-12-16T19:15:09.678240", "MEAN_MOTION": 14.5133295, "ECCENTRICITY": 0.00156142, "INCLINATION": 74.0426, "RA_OF_ASC_NODE": 179.6525, "ARG_OF_PERICENTER": 254.9134, "MEAN_ANOMALY": 105.03, "EPHEMERIS_TYPE": 0, "CLASSIFICATION_TYPE": "U", "NORAD_CAT_ID": 35997, "ELEMENT_SET_NO": 999, "REV_AT_EPOCH": 70943, "BSTAR": 0.00047908255, "MEAN_MOTION_DOT": 1.884e-05, "MEAN_MOTION_DDOT": 0}, "tle": {"line1": "1 35997U 93036AWP 25350.80219535  .00001884  00000+0  47908-3 0  9993", "line2": "2 35997  74.0426 179.6525 0015614 254.9134 105.0300 14.51332950709433"}}, "geometry": {"type": "Point", "coordinates": [-160.13687649208077, 53.138691089732276]}}, {"type": "Feature", "properties": {"norad_id": 36005, "name": "COSMOS 2251 DEB", "group": "cosmos-2251-debris", "lat": 12.744570592343091, "lon": 87.90761044935893, "alt_km": 774.1876382402706, "timestamp": "2025-12-17T23:38:07.250426+00:00", "meta": {"OBJECT_NAME": "COSMOS 2251 DEB", "OBJECT_ID": "1993-036AWX", "EPOCH": "2025-12-17T00:20:58.202592", "MEAN_MOTION": 14.47364768, "ECCENTRICITY": 0.00618064, "INCLINATION": 74.0273, "RA_OF_ASC_NODE": 86.0079, "ARG_OF_PERICENTER": 222.4789, "MEAN_ANOMALY": 137.1579, "EPHEMERIS_TYPE": 0, "CLASSIFICATION_TYPE": "U", "NORAD_CAT_ID": 36005, "ELEMENT_SET_NO": 999, "REV_AT_EPOCH": 87646, "BSTAR": 0.00017419638, "MEAN_MOTION_DOT": 6.25e-06, "MEAN_MOTION_DDOT": 0}, "tle": {"line1": "1 36005U 93036AWX 25351.01456253  .00000625  00000+0  17420-3 0  9996", "line2": "2 36005  74.0273  86.0079 0061806 222.4789 137.1579 14.47364768876468"}}, "geometry": {"type": "Point", "coordinates": [87.90761044935893, 12.744570592343091]}}, {"type": "Feature", "properties": {"norad_id": 36045, "name": "COSMOS 2251 DEB", "group": "cosmos-2251-debris", "lat": 42.48045391353601, "lon": -146.72357005832797, "alt_km": 648.1041191621534, "timestamp": "2025-12-17T23:38:07.250436+00:00", "meta": {"OBJECT_NAME": "COSMOS 2251 DEB", "OBJECT_ID": "1993-036AXG", "EPOCH": "2025-12-16T11:05:34.480032", "MEAN_MOTION": 14.69942409, "ECCENTRICITY": 0.00478915, "INCLINATION": 73.7643, "RA_OF_ASC_NODE": 51.7519, "ARG_OF_PERICENTER": 64.1228, "MEAN_ANOMALY": 296.4867, "EPHEMERIS_TYPE": 0, "CLASSIFICATION_TYPE": "U", "NORAD_CAT_ID": 36045, "ELEMENT_SET_NO": 999, "REV_AT_EPOCH": 8443, "BSTAR": 0.0013078568, "MEAN_MOTION_DOT": 7.948e-05, "MEAN_MOTION_DDOT": 0}, "tle": {"line1": "1 36045U 93036AXG 25350.46220463  .00007948  00000+0  13079-2 0  9990", "line2": "2 36045  73.7643  51.7519 0047891  64.1228 296.4867 14.69942409 84439"}}, "geometry": {"type": "Point", "coordinates": [-146.72357005832797, 42.48045391353601]}}, {"type": "Feature", "properties": {"norad_id": 36046, "name": "COSMOS 2251 DEB", "group": "cosmos-2251-debris", "lat": 65.77732337155298, "lon": 46.818565755653125, "alt_km": 648.0632937842283, "timestamp": "2025-12-17T23:38:07.250446+00:00", "meta": {"OBJECT_NAME": "COSMOS 2251 DEB", "OBJECT_ID": "1993-036AXH", "EPOCH": "2025-12-16T01:21:09.149760", "MEAN_MOTION": 14.65292015, "ECCENTRICITY": 0.00556784, "INCLINATION": 74.0168, "RA_OF_ASC_NODE": 270.107, "ARG_OF_PERICENTER": 55.1264, "MEAN_ANOMALY": 324.2312, "EPHEMERIS_TYPE": 0, "CLASSIFICATION_TYPE": "U", "NORAD_CAT_ID": 36046, "ELEMENT_SET_NO": 999, "REV_AT_EPOCH": 64052, "BSTAR": 0.00042488876, "MEAN_MOTION_DOT": 2.313e-05, "MEAN_MOTION_DDOT": 0}, "tle": {"line1": "1 36046U 93036AXH 25350.05635590  .00002313  00000+0  42489-3 0  9996", "line2": "2 36046  74.0168 270.1070 0055678  55.1264 324.2312 14.65292015640527"}}, "geometry": {"type": "Point", "coordinates": [46.818565755653125, 65.77732337155298]}}]}